{"type": "FeatureCollection", "features": [ {"type": "Feature", "properties": {"norad_id": 66747, "name": "W-SERIES 5", "group": "last-30-days", "lat": -78.82954671972499, "lon": 113.53528483892872, "alt_km": 520.5536478766435, "timestamp": "2025-12-26T13:39:17.664933+00:00", "meta": {"OBJECT_NAME": "W-SERIES 5", "OBJECT_ID": "2025-276CK", "EPOCH": "2025-12-26T06:06:07.050528", "MEAN_MOTION": 15.17575089, "ECCENTRICITY": 0.00014417, "INCLINATION": 97.4405, "RA_OF_ASC_NODE": 71.7881, "ARG_OF_PERICENTER": 187.1644, "MEAN_ANOMALY": 172.957, "EPHEMERIS_TYPE": 0, "CLASSIFICATION_TYPE": "U", "NORAD_CAT_ID": 66747, "ELEMENT_SET_NO": 999, "REV_AT_EPOCH": 417, "BSTAR": 0.00041184233, "MEAN_MOTION_DOT": 8.209e-05, "MEAN_MOTION_DDOT": 0}, "tle": {"line1": "1 66747U 25276CK  25360.25424827  .00008209  00000+0  41184-3 0  9991", "line2": "2 66747  97.4405  71.7881 0001441 187.1644 172.9570 15.17575089  4175"}}, "geometry": {"type": "Point", "coordinates": [113.53528483892872, -78.82954671972499]}}, {"type": "Feature", "properties": {"norad_id": 66748, "name": "TRANSPORTER-15CL", "group": "last-30-days", "lat": -20.54587740346333, "lon": 74.92798233311422, "alt_km": 516.2196003993531, "timestamp": "2025-12-26T13:39:17.664943+00:00", "meta": {"OBJECT_NAME": "TRANSPORTER-15CL", "OBJECT_ID": "2025-276CL", "EPOCH": "2025-12-26T05:50:21.107040", "MEAN_MOTION": 15.1864115, "ECCENTRICITY": 0.0002131, "INCLINATION": 97.4397, "RA_OF_ASC_NODE": 71.8003, "ARG_OF_PERICENTER": 208.0481, "MEAN_ANOMALY": 152.0639, "EPHEMERIS_TYPE": 0, "CLASSIFICATION_TYPE": "U", "NORAD_CAT_ID": 66748, "ELEMENT_SET_NO": 999, "REV_AT_EPOCH": 417, "BSTAR": 0.00094551903, "MEAN_MOTION_DOT": 0.00019552, "MEAN_MOTION_DDOT": 0}, "tle": {"line1": "1 66748U 25276CL  25360.24329985  .00019552  00000+0  94552-3 0  9990", "line2": "2 66748  97.4397  71.8003 0002131 208.0481 152.0639 15.18641150  4171"}}, "geometry": {"type": "Point", "coordinates": [74.92798233311422, -20.54587740346333]}}, {"type": "Feature", "properties": {"norad_id": 66749, "name": "TRANSPORTER-15CM", "group": "last-30-days", "lat": -53.68480692608168, "lon": 82.34395034609213, "alt_km": 520.1417371252883, "timestamp": "2025-12-26T13:39:17.664955+00:00", "meta": {"OBJECT_NAME": "TRANSPORTER-15CM", "OBJECT_ID": "2025-276CM", "EPOCH": "2025-12-26T05:59:00.531744", "MEAN_MOTION": 15.17920065, "ECCENTRICITY": 0.00021791, "INCLINATION": 97.4394, "RA_OF_ASC_NODE": 71.7891, "ARG_OF_PERICENTER": 175.9808, "MEAN_ANOMALY": 184.1444, "EPHEMERIS_TYPE": 0, "CLASSIFICATION_TYPE": "U", "NORAD_CAT_ID": 66749, "ELEMENT_SET_NO": 999, "REV_AT_EPOCH": 417, "BSTAR": 0.00034685686, "MEAN_MOTION_DOT": 6.971e-05, "MEAN_MOTION_DDOT": 0}, "tle": {"line1": "1 66749U 25276CM  25360.24931171  .00006971  00000+0  34686-3 0  9990", "line2": "2 66749  97.4394  71.7891 0002179 175.9808 184.1444 15.17920065  4174"}}, "geometry": {"type": "Point", "coordinates": [82.34395034609213, -53.68480692608168]}}, {"type": "Feature", "properties": {"norad_id": 66750, "name": "TRANSPORTER-15CN", "group": "last-30-days", "lat": -35.49450763159975, "lon": 77.48082497494289, "alt_km": 521.9433119090272, "timestamp": "2025-12-26T13:39:17.664965+00:00", "meta": {"OBJECT_NAME": "TRANSPORTER-15CN", "OBJECT_ID": "2025-276CN", "EPOCH": "2025-12-26T05:54:06.293952", "MEAN_MOTION": 15.17898833, "ECCENTRICITY": 0.00047517, "INCLINATION": 97.4466, "RA_OF_ASC_NODE": 71.8109, "ARG_OF_PERICENTER": 160.3578, "MEAN_ANOMALY": 199.784, "EPHEMERIS_TYPE": 0, "CLASSIFICATION_TYPE": "U", "NORAD_CAT_ID": 66750, "ELEMENT_SET_NO": 999, "REV_AT_EPOCH": 417, "BSTAR": -0.005878946, "MEAN_MOTION_DOT": -0.00117308, "MEAN_MOTION_DDOT": 0}, "tle": {"line1": "1 66750U 25276CN  25360.24590618 -.00117308  00000+0 -58789-2 0  9997", "line2": "2 66750  97.4466  71.8109 0004751 160.3578 199.7840 15.17898833  4178"}}, "geometry": {"type": "Point", "coordinates": [77.48082497494289, -35.49450763159975]}}, {"type": "Feature", "properties": {"norad_id": 66751, "name": "ICEYE-X58", "group": "last-30-days", "lat": -56.51806687221028, "lon": 83.5065251415566, "alt_km": 520.1744955849463, "timestamp": "2025-12-26T13:39:17.664975+00:00", "meta": {"OBJECT_NAME": "ICEYE-X58", "OBJECT_ID": "2025-276CP", "EPOCH": "2025-12-26T05:59:45.172032", "MEAN_MOTION": 15.1783727, "ECCENTRICITY": 0.00026227, "INCLINATION": 97.4406, "RA_OF_ASC_NODE": 71.7971, "ARG_OF_PERICENTER": 190.975, "MEAN_ANOMALY": 169.1427, "EPHEMERIS_TYPE": 0, "CLASSIFICATION_TYPE": "U", "NORAD_CAT_ID": 66751, "ELEMENT_SET_NO": 999, "REV_AT_EPOCH": 417, "BSTAR": 0.0004276738, "MEAN_MOTION_DOT": 8.593e-05, "MEAN_MOTION_DDOT": 0}, "tle": {"line1": "1 66751U 25276CP  25360.24982838  .00008593  00000+0  42767-3 0  9990", "line2": "2 66751  97.4406  71.7971 0002622 190.9750 169.1427 15.17837270  4175"}}, "geometry": {"type": "Point", "coordinates": [83.5065251415566, -56.51806687221028]}}, {"type": "Feature", "properties": {"norad_id": 66752, "name": "ICEYE-X59", "group": "last-30-days", "lat": -74.5951219851388, "lon": 100.41373368694495, "alt_km": 519.7665624174942, "timestamp": "2025-12-26T13:39:17.664987+00:00", "meta": {"OBJECT_NAME": "ICEYE-X59", "OBJECT_ID": "2025-276CQ", "EPOCH": "2025-12-26T06:04:45.997824", "MEAN_MOTION": 15.17637773, "ECCENTRICITY": 0.00020326, "INCLINATION": 97.44, "RA_OF_ASC_NODE": 71.792, "ARG_OF_PERICENTER": 217.1428, "MEAN_ANOMALY": 142.9665, "EPHEMERIS_TYPE": 0, "CLASSIFICATION_TYPE": "U", "NORAD_CAT_ID": 66752, "ELEMENT_SET_NO": 999, "REV_AT_EPOCH": 417, "BSTAR": 0.00040475109, "MEAN_MOTION_DOT": 8.081e-05, "MEAN_MOTION_DDOT": 0}, "tle": {"line1": "1 66752U 25276CQ  25360.25331016  .00008081  00000+0  40475-3 0  9994", "line2": "2 66752  97.4400  71.7920 0002032 217.1428 142.9665 15.17637773  4172"}}, "geometry": {"type": "Point", "coordinates": [100.41373368694495, -74.5951219851388]}}, {"type": "Feature", "properties": {"norad_id": 66753, "name": "ICEYE-X60", "group": "last-30-days", "lat": -77.65271324383272, "lon": -144.56600403466425, "alt_km": 520.2462746838573, "timestamp": "2025-12-26T13:39:17.664997+00:00", "meta": {"OBJECT_NAME": "ICEYE-X60", "OBJECT_ID": "2025-276CR", "EPOCH": "2025-12-26T06:10:53.042304", "MEAN_MOTION": 15.17417771, "ECCENTRICITY": 0.00011006, "INCLINATION": 97.4401, "RA_OF_ASC_NODE": 71.7824, "ARG_OF_PERICENTER": 248.0802, "MEAN_ANOMALY": 112.0314, "EPHEMERIS_TYPE": 0, "CLASSIFICATION_TYPE": "U", "NORAD_CAT_ID": 66753, "ELEMENT_SET_NO": 999, "REV_AT_EPOCH": 417, "BSTAR": 0.00041849963, "MEAN_MOTION_DOT": 8.305e-05, "MEAN_MOTION_DDOT": 0}, "tle": {"line1": "1 66753U 25276CR  25360.25755836  .00008305  00000+0  41850-3 0  9992", "line2": "2 66753  97.4401  71.7824 0001100 248.0802 112.0314 15.17417771  4174"}}, "geometry": {"type": "Point", "coordinates": [-144.56600403466425, -77.65271324383272]}}, {"type": "Feature", "properties": {"norad_id": 66754, "name": "ICEYE-X61", "group": "last-30-days", "lat": -51.336132437352504, "lon": 81.50723677869065, "alt_km": 520.3665634552281, "timestamp": "2025-12-26T13:39:17.665006+00:00", "meta": {"OBJECT_NAME": "ICEYE-X61", "OBJECT_ID": "2025-276CS", "EPOCH": "2025-12-26T05:58:21.645696", "MEAN_MOTION": 15.17875463, "ECCENTRICITY": 0.00025968, "INCLINATION": 97.4398, "RA_OF_ASC_NODE": 71.793, "ARG_OF_PERICENTER": 180.1367, "MEAN_ANOMALY": 179.9866, "EPHEMERIS_TYPE": 0, "CLASSIFICATION_TYPE": "U", "NORAD_CAT_ID": 66754, "ELEMENT_SET_NO": 999, "REV_AT_EPOCH": 417, "BSTAR": 0.00024164969, "MEAN_MOTION_DOT": 4.829e-05, "MEAN_MOTION_DDOT": 0}, "tle": {"line1": "1 66754U 25276CS  25360.24886164  .00004829  00000+0  24165-3 0  9998", "line2": "2 66754  97.4398  71.7930 0002596 180.1367 179.9866 15.17875463  4170"}}, "geometry": {"type": "Point", "coordinates": [81.50723677869065, -51.336132437352504]}}, {"type": "Feature", "properties": {"norad_id": 66755, "name": "ICEYE-X62", "group": "last-30-days", "lat": -75.68486393180478, "lon": 102.90028711704687, "alt_km": 520.0769516566515, "timestamp": "2025-12-26T13:39:17.665018+00:00", "meta": {"OBJECT_NAME": "ICEYE-X62", "OBJECT_ID": "2025-276CT", "EPOCH": "2025-12-26T04:30:09.835776", "MEAN_MOTION": 15.17659268, "ECCENTRICITY": 0.00011539, "INCLINATION": 97.44, "RA_OF_ASC_NODE": 71.7214, "ARG_OF_PERICENTER": 205.397, "MEAN_ANOMALY": 154.7208, "EPHEMERIS_TYPE": 0, "CLASSIFICATION_TYPE": "U", "NORAD_CAT_ID": 66755, "ELEMENT_SET_NO": 999, "REV_AT_EPOCH": 416, "BSTAR": 0.00043035069, "MEAN_MOTION_DOT": 8.602e-05, "MEAN_MOTION_DDOT": 0}, "tle": {"line1": "1 66755U 25276CT  25360.18761384  .00008602  00000+0  43035-3 0  9998", "line2": "2 66755  97.4400  71.7214 0001153 205.3970 154.7208 15.17659268  4161"}}, "geometry": {"type": "Point", "coordinates": [102.90028711704687, -75.68486393180478]}}, {"type": "Feature", "properties": {"norad_id": 66756, "name": "TRANSPORTER-15CU", "group": "last-30-days", "lat": -44.30998258878115, "lon": 79.44444942852516, "alt_km": 519.8752395115516, "timestamp": "2025-12-26T13:39:17.665028+00:00", "meta": {"OBJECT_NAME": "TRANSPORTER-15CU", "OBJECT_ID": "2025-276CU", "EPOCH": "2025-12-26T04:21:34.719840", "MEAN_MOTION": 15.17986065, "ECCENTRICITY": 0.00018125, "INCLINATION": 97.4406, "RA_OF_ASC_NODE": 71.734, "ARG_OF_PERICENTER": 150.885, "MEAN_ANOMALY": 209.2485, "EPHEMERIS_TYPE": 0, "CLASSIFICATION_TYPE": "U", "NORAD_CAT_ID": 66756, "ELEMENT_SET_NO": 999, "REV_AT_EPOCH": 416, "BSTAR": 0.00044346828, "MEAN_MOTION_DOT": 8.951e-05, "MEAN_MOTION_DDOT": 0}, "tle": {"line1": "1 66756U 25276CU  25360.18165185  .00008951  00000+0  44347-3 0  9990", "line2": "2 66756  97.4406  71.7340 0001812 150.8850 209.2485 15.17986065  4162"}}, "geometry": {"type": "Point", "coordinates": [79.44444942852516, -44.30998258878115]}}]}